ONEWEB-0674             
1 55833U 23029AP  25355.90225010  .00000303  00000+0  78331-3 0  9999
2 55833  87.8992 325.0550 0002333  85.2508 274.8888 13.14504967136126
ONEWEB-0675             
1 55834U 23029AQ  25355.94758448  .00000005  00000+0 -20844-4 0  9997
2 55834  87.9202 340.2531 0001472  84.9561 275.1739 13.19725560135541
ONEWEB-0720             
1 55835U 23029AR  25356.01550116  .00000034  00000+0  53422-4 0  9998
2 55835  87.9195 340.2378 0001937  75.0634 285.0713 13.19724999135479
ONEWEB-0537             
1 56046U 23043A   25356.04567576  .00000091  00000+0  20318-3 0  9990
2 56046  87.9051 264.0432 0001435  76.9077 283.2214 13.16595372135657
ONEWEB-0538             
1 56047U 23043B   25355.73534391 -.00000002  00000+0 -39924-4 0  9993
2 56047  87.9045 264.1087 0001455  66.0354 294.0930 13.16596234135628
ONEWEB-0546             
1 56048U 23043C   25355.72268243  .00000028  00000+0  39820-4 0  9994
2 56048  87.9058 264.1039 0001205  95.7864 264.3404 13.16596926135611
ONEWEB-0547             
1 56049U 23043D   25356.04361917  .00000122  00000+0  26271-3 0  9993
2 56049  87.9231 279.3056 0001751  70.0664 290.0658 13.21826608134820
ONEWEB-0548             
1 56050U 23043E   25355.82322995 -.00000038  00000+0 -13338-3 0  9991
2 56050  87.9037 264.0894 0002039  80.4170 279.7191 13.16594855135629
